ORBCOMM FM24            
1 25478U 98053D   24159.31610929  .00001767  00000+0  65321-3 0  9993
2 25478  45.0083 243.4700 0002235 214.3543 145.7160 14.35808967343524
ORBCOMM FM25            
1 25479U 98053E   24159.35238876  .00001804  00000+0  66632-3 0  9993
2 25479  45.0072 241.5451 0004544 194.9614 165.1100 14.35789234343820
ORBCOMM FM26            
1 25480U 98053F   24159.30026107  .00001434  00000+0  54573-3 0  9992
2 25480  45.0067 236.0291 0006997 204.6131 155.4383 14.35213216343753
ORBCOMM FM27            
1 25481U 98053G   24159.61910060  .00001968  00000+0  72244-3 0  9994
2 25481  45.0056 240.5489 0002219 256.3362 103.7238 14.35778481343838
ORBCOMM FM28            
1 25482U 98053H   24159.04063976  .00001387  00000+0  51900-3 0  9998
2 25482  45.0046 181.6557 0005306 241.0333 118.9983 14.36197475344383
ORBCOMM FM30            
1 25980U 99065A   24158.84196612  .00001752  00000+0  65393-3 0  9993
2 25980  45.0326  63.7450 0006481 295.5750  64.4428 14.35345548280485
ORBCOMM FM31            
1 25981U 99065B   24159.78199236  .00001885  00000+0  70015-3 0  9997
2 25981  45.0242  52.9817 0003843 325.5734  34.4864 14.35345801281142
ORBCOMM FM32            
1 25982U 99065C   24158.87781365  .00001739  00000+0  66278-3 0  9991
2 25982  45.0167  71.2494 0006410 320.2813  39.7564 14.34342773280673
